Satellite: XATCOBEO
Catalog number: 38082
Epoch time:      13311.77886453
Element set:     655
Inclination:      069.4679 deg
RA of node:       181.6330 deg
Eccentricity:    0.0489288
Arg of perigee:   297.6963 deg
Mean anomaly:     057.5200 deg
Mean motion:   14.78276086 rev/day
Decay rate:     8.8620e-04 rev/day^2
Epoch rev:            9096
Checksum:              361

Satellite: SOMP
Catalog number: 39135
Epoch time:      13310.88565086
Element set:     364
Inclination:      064.8732 deg
RA of node:       120.1559 deg
Eccentricity:    0.0004155
Arg of perigee:   325.2626 deg
Mean anomaly:     034.8215 deg
Mean motion:   15.01316112 rev/day
Decay rate:      6.304e-05 rev/day^2
Epoch rev:            3024
Checksum:              256

Satellite: CUBEBUG-1
Catalog number: 39153
Epoch time:      13311.79784559
Element set:     558
Inclination:      098.0642 deg
RA of node:       027.4795 deg
Eccentricity:    0.0017946
Arg of perigee:   346.8941 deg
Mean anomaly:     013.1793 deg
Mean motion:   14.76745375 rev/day
Decay rate:      1.921e-05 rev/day^2
Epoch rev:            2887
Checksum:              348

Satellite: ESTCUBE-1
Catalog number: 39161
Epoch time:      13311.67286604
Element set:     528
Inclination:      098.1181 deg
RA of node:       029.1140 deg
Eccentricity:    0.0010588
Arg of perigee:   024.8836 deg
Mean anomaly:     335.2877 deg
Mean motion:   14.69224920 rev/day
Decay rate:      1.590e-05 rev/day^2
Epoch rev:            2706
Checksum:              295

/EX
SB KEPS @ AMSAT  $ORB13311.W
Orbital Elements  13311.WEATHER

HR AMSAT ORBITAL ELEMENTS FOR WEATHER SATELLITES
FROM WA5QGD FORT WORTH,TX November 7, 2013
BID: ORB13311.W
TO ALL RADIO AMATEURS BT

Satellite: NOAA-10
Catalog number: 16969
Epoch time:      13311.53033705
Element set:     560
Inclination:      098.5343 deg
RA of node:       336.1654 deg
Eccentricity:    0.0012535
Arg of perigee:   180.5808 deg
Mean anomaly:     338.4932 deg
Mean motion:   14.27678062 rev/day
Decay rate:       1.40e-06 rev/day^2
Epoch rev:           41239
Checksum:              293

Satellite: NOAA-11
Catalog number: 19531
Epoch time:      13311.34374330
Element set:     583
Inclination:      098.7023 deg
RA of node:       030.9388 deg
Eccentricity:    0.0010989
Arg of perigee:   206.9690 deg
Mean anomaly:     153.0914 deg
Mean motion:   14.15036103 rev/day
Decay rate:        7.4e-07 rev/day^2
Epoch rev:           29636
Checksum:              287

Satellite: NOAA-12
Catalog number: 21263
Epoch time:      13311.52186449
Element set:      36
Inclination:      098.6865 deg
RA of node:       335.6955 deg
Eccentricity:    0.0014509
Arg of perigee:   159.6283 deg
Mean anomaly:     001.0839 deg
Mean motion:   14.25596158 rev/day
Decay rate:       1.11e-06 rev/day^2
Epoch rev:           16897
Checksum:              316

Satellite: MET-3/5
Catalog number: 21655
Epoch time:      13311.52448766
Element set:     826
Inclination:      082.5542 deg
RA of node:       153.0372 deg
Eccentricity:    0.0014216
Arg of perigee:   129.4613 deg
Mean anomaly:     230.7769 deg
Mean motion:   13.17046212 rev/day
Decay rate:       4.11e-06 rev/day^2
Epoch rev:            6880
Checksum:              280

Satellite: MET-2/21
Catalog number: 22782
Epoch time:      13311.14403336
Element set:     889
Inclination:      082.5488 deg
RA of node:       349.4905 deg
Eccentricity:    0.0023216
Arg of perigee:   165.5442 deg
Mean anomaly:     218.8635 deg
Mean motion:   13.83714845 rev/day
Decay rate:        2.2e-07 rev/day^2
Epoch rev:            1941
Checksum:              301

Satellite: OKEAN-4
Catalog number: 23317
Epoch time:      13311.21692425
Element set:     369
Inclination:      082.5382 deg
RA of node:       275.8933 deg
Eccentricity:    0.0022784
Arg of perigee:   112.8946 deg
Mean anomaly:     308.1876 deg
Mean motion:   14.84740513 rev/day
Decay rate:      1.885e-05 rev/day^2
Epoch rev:            3016
Checksum:              308

Satellite: NOAA-14
Catalog number: 23455
Epoch time:      13311.44099514
Element set:     514
Inclination:      098.7957 deg
RA of node:       033.6574 deg
Eccentricity:    0.0008521
Arg of perigee:   313.9563 deg
Mean anomaly:     101.7996 deg
Mean motion:   14.13927629 rev/day
Decay rate:        8.9e-07 rev/day^2
Epoch rev:           97261
Checksum:              328

Satellite: NOAA-15
Catalog number: 25338
Epoch time:      13311.52034264
Element set:     941
Inclination:      098.7373 deg
RA of node:       301.0395 deg
Eccentricity:    0.0011681
Arg of perigee:   074.5703 deg
Mean anomaly:     084.2928 deg
Mean motion:   14.25286803 rev/day
Decay rate:       2.24e-06 rev/day^2
Epoch rev:           80526
Checksum:              288

Satellite: RESURS
Catalog number: 25394
Epoch time:      13310.13437946
Element set:     510
Inclination:      098.3821 deg
RA of node:       279.2999 deg
Eccentricity:    0.0001719
Arg of perigee:   150.9431 deg
Mean anomaly:     338.3040 deg
Mean motion:   14.24343142 rev/day
Decay rate:       1.05e-06 rev/day^2
Epoch rev:           79656
Checksum:              290

Satellite: FENGYUN1
Catalog number: 25730
Epoch time:      13311.47217119
Element set:       4
Inclination:      098.8928 deg
RA of node:       269.3425 deg
Eccentricity:    0.0028209
Arg of perigee:   011.0481 deg
Mean anomaly:     136.0063 deg
Mean motion:   14.10852552 rev/day
Decay rate:      3.193e-05 rev/day^2
Epoch rev:           74624
Checksum:              273

Satellite: OKEAN-0
Catalog number: 25860
Epoch time:      13311.01086878
Element set:      90
Inclination:      098.0114 deg
RA of node:       271.7079 deg
Eccentricity:    0.0001977
Arg of perigee:   087.4036 deg
Mean anomaly:     339.6430 deg
Mean motion:   14.74765307 rev/day
Decay rate:       9.26e-06 rev/day^2
Epoch rev:           76940
Checksum:              310

Satellite: NOAA-16
Catalog number: 26536
Epoch time:      13311.38424457
Element set:     430
Inclination:      099.0246 deg
RA of node:       005.4365 deg
Eccentricity:    0.0011500
Arg of perigee:   093.6117 deg
Mean anomaly:     326.3304 deg
Mean motion:   14.12939127 rev/day
Decay rate:       1.00e-06 rev/day^2
Epoch rev:           67679
Checksum:              275

Satellite: NOAA-17
Catalog number: 27453
Epoch time:      13311.56672578
Element set:     334
Inclination:      098.3117 deg
RA of node:       318.0375 deg
Eccentricity:    0.0012922
Arg of perigee:   105.2128 deg
Mean anomaly:     002.9072 deg
Mean motion:   14.24637448 rev/day
Decay rate:       2.02e-06 rev/day^2
Epoch rev:           59113
Checksum:              281

Satellite: NOAA-18
Catalog number: 28654
Epoch time:      13311.52841118
Element set:     827
Inclination:      099.1203 deg
RA of node:       281.9451 deg
Eccentricity:    0.0014682
Arg of perigee:   162.9058 deg
Mean anomaly:     334.7067 deg
Mean motion:   14.11887935 rev/day
Decay rate:       1.16e-06 rev/day^2
Epoch rev:           43628
Checksum:              314

Satellite: NOAA-19
Catalog number: 33591
Epoch time:      13311.57612821
Element set:     998
Inclination:      098.9190 deg
RA of node:       252.6008 deg
Eccentricity:    0.0014539
Arg of perigee:   028.9896 deg
Mean anomaly:     090.2098 deg
Mean motion:   14.11577387 rev/day
Decay rate:       1.63e-06 rev/day^2
Epoch rev:           24472
Checksum:              332

/EX
SB KEPS @ AMSAT  $ORB13311.M
Orbital Elements  13311.MISC

HR AMSAT ORBITAL ELEMENTS FOR MANNED AND MISCELLANEOUS SATELLITES
FROM WA5QGD FORT WORTH,TX November 7, 2013
BID: ORB13311.M
TO ALL RADIO AMATEURS BT

Satellite: HUBBLE
Catalog number: 20580
Epoch time:      13311.75086219
Element set:     369
Inclination:      028.4714 deg
RA of node:       051.3722 deg
Eccentricity:    0.0003585
Arg of perigee:   080.8027 deg
Mean anomaly:     053.2569 deg
Mean motion:   15.04132225 rev/day
Decay rate:      3.485e-05 rev/day^2
Epoch rev:            9133
Checksum:              271

Satellite: ISS
Catalog number: 25544
Epoch time:      13312.01663314
Element set:     968
Inclination:      051.6498 deg
RA of node:       115.7452 deg
Eccentricity:    0.0001264
Arg of perigee:   117.3033 deg
Mean anomaly:     339.6492 deg
Mean motion:   15.49949596 rev/day
Decay rate:     4.7720e-04 rev/day^2
Epoch rev:           85701
Checksum:              311

Satellite: CO-58
Catalog number: 28895
Epoch time:      13310.85719954
Element set:     614
Inclination:      097.8515 deg
RA of node:       159.0988 deg
Eccentricity:    0.0017260
Arg of perigee:   356.7048 deg
Mean anomaly:     003.4037 deg
Mean motion:   14.61310734 rev/day
Decay rate:      1.106e-05 rev/day^2
Epoch rev:           42777
Checksum:              327

Satellite: FALCON
Catalog number: 30776
Epoch time:      13310.71746019
Element set:     731
Inclination:      035.4313 deg
RA of node:       046.6177 deg
Eccentricity:    0.0001115
Arg of perigee:   122.8111 deg
Mean anomaly:     004.1781 deg
Mean motion:   15.12024655 rev/day
Decay rate:      9.691e-05 rev/day^2
Epoch rev:           36699
Checksum:              269

Satellite: MAST
Catalog number: 31126
Epoch time:      13310.93878542
Element set:     894
Inclination:      097.8932 deg
RA of node:       298.8094 deg
Eccentricity:    0.0091976
Arg of perigee:   328.3402 deg
Mean anomaly:     059.7513 deg
Mean motion:   14.54759458 rev/day
Decay rate:      1.183e-05 rev/day^2
Epoch rev:           34807
Checksum:              345

